ONEWEB-0018             
1 45434U 20020L   24193.47277253 -.00000415  00000+0 -12072-2 0  9995
2 45434  87.8975 161.5196 0002102  81.3837 278.7529 13.11415445210147
ONEWEB-0083             
1 45435U 20020M   24193.46260715 -.00000108  00000+0 -34009-3 0  9994
2 45435  87.8975 161.5033 0002017  83.9373 276.1985 13.11414910210173
ONEWEB-0095             
1 45436U 20020N   24193.45426944  .00000346  00000+0  94154-3 0  9991
2 45436  87.8973 161.5392 0001922 108.9984 251.1353 13.11413930210173
ONEWEB-0092             
1 45437U 20020P   24193.42107132 -.00000020  00000+0 -93428-4 0  9999
2 45437  87.8977 161.5276 0002126  93.3006 266.8365 13.11418316210289
ONEWEB-0085             
1 45438U 20020Q   24193.45582600  .00000309  00000+0  83599-3 0  9995
2 45438  87.8975 161.5284 0002131  81.4879 278.6491 13.11415713210176
ONEWEB-0096             
1 45439U 20020R   24193.46429804 -.00000143  00000+0 -43961-3 0  9990
2 45439  87.8973 161.4972 0002246  80.4093 279.7289 13.11415054210166
ONEWEB-0037             
1 45440U 20020S   24193.44566160  .00000656  00000+0  18143-2 0  9997
2 45440  87.8968 161.4835 0002093  87.7778 272.3590 13.11416244210199
ONEWEB-0042             
1 45441U 20020T   24193.45399232  .00000336  00000+0  91289-3 0  9991
2 45441  87.8973 161.5131 0002157  83.3694 276.7679 13.11415313210165
